[{"OBJECT_ID":"2003-053A","OBJECT_NAME":"YAMAL 202","NORAD_CAT_ID":"28089","OBJECT_TYPE":"PAYLOAD","PERIOD":"1436.045","INCLINATION":"0.0384","APOGEE":"35794.468","PERIGEE":"35776.708","ECCENTRICITY":"0.0002106","MEAN_MOTION":"1.00275383","TLE_LINE1":"1 28089U 03053A   16238.99285964 +.00000091 +00000-0 +00000-0 0  9990","TLE_LINE2":"2 28089 000.0384 094.9176 0002106 064.0162 222.1669 01.00275383046768","LAUNCH_DATE":"2003-11-24","LAUNCH_SITE":"TYURATAM MISSILE AND SPACE COMPLEX","OWNER":"COMMONWEALTH OF INDEPENDENT STATES","ORBIT_TYPE":"Geosynchronous","OPERATIONAL_STATUS":"Operational","satInfo":{"lng":99.97194668196232,"lat":-2.3524955441945736,"elevation":-10.864295740910803,"azimuth":215.02805331803765,"range":42901.69923062975,"height":35790.1107377999,"velocity":3.0742596596660268},"x":336.6198561159741,"y":57.614819744300355,"dx":-0.5323571639170507,"dy":3.0278157647182016,"maxAlt":341.85436703763645,"minAlt":341.68380509293064},{"OBJECT_ID":"2003-053B","OBJECT_NAME":"YAMAL 201","NORAD_CAT_ID":"28094","OBJECT_TYPE":"PAYLOAD","PERIOD":"1436.394","INCLINATION":"1.68","APOGEE":"35805.899","PERIGEE":"35778.927","ECCENTRICITY":"0.0003198","MEAN_MOTION":"1.0025104","TLE_LINE1":"1 28094U 03053B   16238.80843432 -.00000250 +00000-0 +00000-0 0  9994","TLE_LINE2":"2 28094 001.6800 081.2880 0003198 174.2521 099.5838 01.00251040048951","LAUNCH_DATE":"2003-11-24","LAUNCH_SITE":"TYURATAM MISSILE AND SPACE COMPLEX","OWNER":"COMMONWEALTH OF INDEPENDENT STATES","ORBIT_TYPE":"Geosynchronous","OPERATIONAL_STATUS":"Nonoperational","satInfo":{"lng":60.47540478692169,"lat":-3.3709960822113105,"elevation":-11.85626179725579,"azimuth":254.5245952130783,"range":42991.517724006386,"height":35769.05715253238,"velocity":3.0757565090064367},"x":297.00282615128486,"y":-171.18901637582343,"dx":1.5157239804978595,"dy":2.6763517925786937,"maxAlt":341.9641470821146,"minAlt":341.70511573230584},{"OBJECT_ID":"2003-059A","OBJECT_NAME":"AMOS 2","NORAD_CAT_ID":"28132","OBJECT_TYPE":"PAYLOAD","PERIOD":"1436.107","INCLINATION":"0.1057","APOGEE":"35798.388","PERIGEE":"35775.222","ECCENTRICITY":"0.0002747","MEAN_MOTION":"1.00271041","TLE_LINE1":"1 28132U 03059A   16238.88284251 -.00000063 +00000-0 +00000-0 0  9991","TLE_LINE2":"2 28132 000.1057 089.6899 0002747 052.5415 146.0739 01.00271041046413","LAUNCH_DATE":"2003-12-27","LAUNCH_SITE":"TYURATAM MISSILE AND SPACE COMPLEX","OWNER":"ISRAEL","ORBIT_TYPE":"Geosynchronous","OPERATIONAL_STATUS":"Operational","satInfo":{"lng":37.97928705596197,"lat":-1.1099093045421404,"elevation":-9.650376296140037,"azimuth":277.02071294403805,"range":42793.027971540585,"height":35817.23682540143,"velocity":3.0733875029814013},"x":209.7708519031343,"y":-273.04070560996956,"dx":2.4225462793558923,"dy":1.8912906354818066,"maxAlt":341.89201359299943,"minAlt":341.6695339752599},{"OBJECT_ID":"2003-060A","OBJECT_NAME":"SESAT 2 (EXPRESS AM-22)","NORAD_CAT_ID":"28134","OBJECT_TYPE":"PAYLOAD","PERIOD":"1436.151","INCLINATION":"0.0416","APOGEE":"35795.573","PERIGEE":"35779.769","ECCENTRICITY":"0.0001874","MEAN_MOTION":"1.00267951","TLE_LINE1":"1 28134U 03060A   16238.70022221 -.00000163  00000-0  00000+0 0  9993","TLE_LINE2":"2 28134   0.0416 271.9699 0001874 310.5384  84.0439  1.00267951 46366","LAUNCH_DATE":"2003-12-28","LAUNCH_SITE":"TYURATAM MISSILE AND SPACE COMPLEX","OWNER":"EUROPEAN TELECOMMUNICATIONS SATELLITE ORGANIZATION (EUTELSAT)","ORBIT_TYPE":"Geosynchronous","OPERATIONAL_STATUS":"Operational","satInfo":{"lng":70.82380683909726,"lat":1.9329883305004185,"elevation":-6.682186866514563,"azimuth":244.17619316090276,"range":42423.646973524614,"height":35781.286882694934,"velocity":3.074999586841965},"x":322.6605810239906,"y":-114.78008705010019,"dx":1.0100580990360764,"dy":2.9043768859515944,"maxAlt":341.864979140615,"minAlt":341.7132020587384},{"OBJECT_ID":"2004-001B","OBJECT_NAME":"BLOCK DM-SL R/B","NORAD_CAT_ID":"28138","OBJECT_TYPE":"ROCKET BODY","PERIOD":"640.843","INCLINATION":"0.3876","APOGEE":"35850.741","PERIGEE":"637.559","ECCENTRICITY":"0.7150673","MEAN_MOTION":"2.24703695","TLE_LINE1":"1 28138U 04001B   16238.71804335 -.00000161 +00000-0 -33674-3 0  9994","TLE_LINE2":"2 28138 000.3876 309.5824 7150673 160.7299 335.1557 02.24703695103665","LAUNCH_DATE":"2004-01-11","LAUNCH_SITE":"SEA LAUNCH","OWNER":"SEA LAUNCH DEMO","ORBIT_TYPE":"Highly Elliptical Orbit","OPERATIONAL_STATUS":"N/A, derelict rocket body","satInfo":{"lng":135.92656380258262,"lat":2.542452795517847,"elevation":-7.727668199512427,"azimuth":179.07343619741735,"range":35631.771497088725,"height":28964.788982297694,"velocity":2.5238034897148816},"x":191.58366161330707,"y":197.94514375342695,"dx":-1.8132237494135601,"dy":1.7555066759370765,"maxAlt":342.3947967850706,"minAlt":4.2174994202358445},{"OBJECT_ID":"2004-007A","OBJECT_NAME":"MBSAT","NORAD_CAT_ID":"28184","OBJECT_TYPE":"PAYLOAD","PERIOD":"1436.082","INCLINATION":"0.019","APOGEE":"35793.732","PERIGEE":"35778.907","ECCENTRICITY":"0.0001758","MEAN_MOTION":"1.00272774","TLE_LINE1":"1 28184U 04007A   16239.03591009  .00000013  00000-0  00000+0 0  9995","TLE_LINE2":"2 28184   0.0190 230.2828 0001758 276.8539 261.4837  1.00272774 45663","LAUNCH_DATE":"2004-03-13","LAUNCH_SITE":"AIR FORCE EASTERN TEST RANGE","OWNER":"PEOPLES REPUBLIC OF CHINA","ORBIT_TYPE":"Geosynchronous","OPERATIONAL_STATUS":"Operational","satInfo":{"lng":89.30241735006071,"lat":1.4803317415611867,"elevation":-7.123769948146781,"azimuth":225.69758264993928,"range":42485.581828365146,"height":35793.54102373612,"velocity":3.074201426790291},"x":341.819987255663,"y":-6.090537302654526,"dx":0.03742782828053667,"dy":3.073973579936832,"maxAlt":341.8472987047928,"minAlt":341.7049236580437},{"OBJECT_ID":"2004-008A","OBJECT_NAME":"EUTE 7A (EUTE W3A)","NORAD_CAT_ID":"28187","OBJECT_TYPE":"PAYLOAD","PERIOD":"1436.078","INCLINATION":"0.0669","APOGEE":"35809.441","PERIGEE":"35763.026","ECCENTRICITY":"0.0005504","MEAN_MOTION":"1.0027308","TLE_LINE1":"1 28187U 04008A   16239.25468428  .00000020  00000-0  00000+0 0  9999","TLE_LINE2":"2 28187   0.0669  15.2277 0005504 154.9391 263.4278  1.00273080 45663","LAUNCH_DATE":"2004-03-15","LAUNCH_SITE":"TYURATAM MISSILE AND SPACE COMPLEX","OWNER":"EUROPEAN TELECOMMUNICATIONS SATELLITE ORGANIZATION (EUTELSAT)","ORBIT_TYPE":"Geosynchronous","OPERATIONAL_STATUS":"Operational","satInfo":{"lng":7.913637442200528,"lat":-0.5185792501057371,"elevation":-9.081886275381656,"azimuth":307.0863625577995,"range":42688.95799457156,"height":35777.38680293802,"velocity":3.0754731766408447},"x":45.4009333080205,"y":-342.2290344094211,"dx":3.046184587117685,"dy":0.42343207417954115,"maxAlt":341.99816343392473,"minAlt":341.55240709025804},{"OBJECT_ID":"2004-016A","OBJECT_NAME":"DIRECTV 7S","NORAD_CAT_ID":"28238","OBJECT_TYPE":"PAYLOAD","PERIOD":"1436.107","INCLINATION":"0.0586","APOGEE":"35798.149","PERIGEE":"35775.447","ECCENTRICITY":"0.0002692","MEAN_MOTION":"1.00271066","TLE_LINE1":"1 28238U 04016A   16239.53750269 -.00000028  00000-0  00000+0 0  9992","TLE_LINE2":"2 28238   0.0586 294.8583 0002692 227.9941 246.7751  1.00271066 45156","LAUNCH_DATE":"2004-05-04","LAUNCH_SITE":"SEA LAUNCH","OWNER":"UNITED STATES OF AMERICA","ORBIT_TYPE":"Geosynchronous","OPERATIONAL_STATUS":"Operational","satInfo":{"lng":-106.92397253335777,"lat":-1.2665581238962218,"elevation":-9.81204793823012,"azimuth":61.92397253335775,"range":42764.85144708702,"height":35771.44138103272,"velocity":3.075508573593193},"x":-330.56607785183826,"y":98.09952807566988,"dx":-0.8952882302326747,"dy":-2.9423140503780494,"maxAlt":341.88971830556784,"minAlt":341.671694810708},{"OBJECT_ID":"2004-017A","OBJECT_NAME":"AMC-11 (GE-11)","NORAD_CAT_ID":"28252","OBJECT_TYPE":"PAYLOAD","PERIOD":"1436.089","INCLINATION":"0.0666","APOGEE":"35796.167","PERIGEE":"35776.754","ECCENTRICITY":"0.0002302","MEAN_MOTION":"1.00272271","TLE_LINE1":"1 28252U 04017A   16239.28849759  .00000041  00000-0  00000+0 0  9998","TLE_LINE2":"2 28252   0.0666 291.2683 0002302 230.3477 146.2074  1.00272271 44782","LAUNCH_DATE":"2004-05-19","LAUNCH_SITE":"AIR FORCE EASTERN TEST RANGE","OWNER":"SOCIÉTÉ EUROPÉENNE DES SATELLITES","ORBIT_TYPE":"Geosynchronous","OPERATIONAL_STATUS":"Operational","satInfo":{"lng":-112.77508719115924,"lat":-1.223351009419085,"elevation":-9.7707663925747,"azimuth":67.77508719115922,"range":42756.20612498058,"height":35767.47060919963,"velocity":3.0755935143751314},"x":-318.62376038635153,"y":131.06867364126447,"dx":-1.1906075037527017,"dy":-2.8357942869104824,"maxAlt":341.8706837461981,"minAlt":341.6842468637334},{"OBJECT_ID":"2004-022A","OBJECT_NAME":"INTELSAT 1002","NORAD_CAT_ID":"28358","OBJECT_TYPE":"PAYLOAD","PERIOD":"1436.097","INCLINATION":"0.0109","APOGEE":"35789.070","PERIGEE":"35784.153","ECCENTRICITY":"5.83e-05","MEAN_MOTION":"1.00271731","TLE_LINE1":"1 28358U 04022A   16238.74960780 -.00000038  00000-0  00000+0 0  9996","TLE_LINE2":"2 28358   0.0109 141.8036 0000583  18.8257  82.6648  1.00271731 44709","LAUNCH_DATE":"2004-06-16","LAUNCH_SITE":"TYURATAM MISSILE AND SPACE COMPLEX","OWNER":"INTERNATIONAL TELECOMMUNICATIONS SATELLITE ORGANIZATION (INTELSAT)","ORBIT_TYPE":"Geosynchronous","OPERATIONAL_STATUS":"Operational","satInfo":{"lng":19.849542611215345,"lat":1.0721428714634296,"elevation":-7.5220454396834056,"azimuth":295.1504573887847,"range":42538.93680077669,"height":35802.11090712162,"velocity":3.0741520816986045},"x":114.84359550721854,"y":-325.3106516060438,"dx":2.8915090727246637,"dy":1.0438325075235104,"maxAlt":341.8025261943075,"minAlt":341.75530473698103}]